{"type": "FeatureCollection", "features": [ {"type": "Feature", "properties": {"norad_id": 44804, "name": "CARTOSAT-3", "group": "resource", "lat": -43.552340660873135, "lon": -130.49305696782596, "alt_km": 524.3146617551083, "timestamp": "2025-12-23T05:02:11.681327+00:00", "meta": {"OBJECT_NAME": "CARTOSAT-3", "OBJECT_ID": "2019-081A", "EPOCH": "2025-12-22T21:43:53.338080", "MEAN_MOTION": 15.19232492, "ECCENTRICITY": 0.00137801, "INCLINATION": 97.4569, "RA_OF_ASC_NODE": 56.3596, "ARG_OF_PERICENTER": 51.2053, "MEAN_ANOMALY": 309.041, "EPHEMERIS_TYPE": 0, "CLASSIFICATION_TYPE": "U", "NORAD_CAT_ID": 44804, "ELEMENT_SET_NO": 999, "REV_AT_EPOCH": 33670, "BSTAR": 0.00021660058, "MEAN_MOTION_DOT": 4.505e-05, "MEAN_MOTION_DDOT": 0}, "tle": {"line1": "1 44804U 19081A   25356.90547845  .00004505  00000+0  21660-3 0  9993", "line2": "2 44804  97.4569  56.3596 0013780  51.2053 309.0410 15.19232492336705"}}, "geometry": {"type": "Point", "coordinates": [-130.49305696782596, -43.552340660873135]}}, {"type": "Feature", "properties": {"norad_id": 44819, "name": "GAOFEN-12 01", "group": "resource", "lat": -41.9525427980864, "lon": 10.305346726387933, "alt_km": 634.7991192413438, "timestamp": "2025-12-23T05:02:11.681337+00:00", "meta": {"OBJECT_NAME": "GAOFEN-12 01", "OBJECT_ID": "2019-082A", "EPOCH": "2025-12-23T00:21:44.322048", "MEAN_MOTION": 14.80668831, "ECCENTRICITY": 0.00020342, "INCLINATION": 97.8124, "RA_OF_ASC_NODE": 3.0264, "ARG_OF_PERICENTER": 185.9164, "MEAN_ANOMALY": 174.2025, "EPHEMERIS_TYPE": 0, "CLASSIFICATION_TYPE": "U", "NORAD_CAT_ID": 44819, "ELEMENT_SET_NO": 999, "REV_AT_EPOCH": 32802, "BSTAR": 6.8611206e-05, "MEAN_MOTION_DOT": 4.76e-06, "MEAN_MOTION_DDOT": 0}, "tle": {"line1": "1 44819U 19082A   25357.01509632  .00000476  00000+0  68611-4 0  9996", "line2": "2 44819  97.8124   3.0264 0002034 185.9164 174.2025 14.80668831328028"}}, "geometry": {"type": "Point", "coordinates": [10.305346726387933, -41.9525427980864]}}, {"type": "Feature", "properties": {"norad_id": 44873, "name": "CSG-1", "group": "resource", "lat": 54.43473362861871, "lon": 9.545650643533497, "alt_km": 616.6031384910075, "timestamp": "2025-12-23T05:02:11.681347+00:00", "meta": {"OBJECT_NAME": "CSG-1", "OBJECT_ID": "2019-092A", "EPOCH": "2025-12-22T23:36:54.410976", "MEAN_MOTION": 14.82153616, "ECCENTRICITY": 0.00014743, "INCLINATION": 97.8804, "RA_OF_ASC_NODE": 178.1538, "ARG_OF_PERICENTER": 85.5515, "MEAN_ANOMALY": 274.5867, "EPHEMERIS_TYPE": 0, "CLASSIFICATION_TYPE": "U", "NORAD_CAT_ID": 44873, "ELEMENT_SET_NO": 999, "REV_AT_EPOCH": 32537, "BSTAR": 7.7068896e-05, "MEAN_MOTION_DOT": 5.61e-06, "MEAN_MOTION_DDOT": 0}, "tle": {"line1": "1 44873U 19092A   25356.98396309  .00000561  00000+0  77069-4 0  9999", "line2": "2 44873  97.8804 178.1538 0001474  85.5515 274.5867 14.82153616325378"}}, "geometry": {"type": "Point", "coordinates": [9.545650643533497, 54.43473362861871]}}, {"type": "Feature", "properties": {"norad_id": 46277, "name": "NEMO-HD", "group": "resource", "lat": -43.317833371598354, "lon": 63.03994206394743, "alt_km": 451.35180274878803, "timestamp": "2025-12-23T05:02:11.681357+00:00", "meta": {"OBJECT_NAME": "NEMO-HD", "OBJECT_ID": "2020-061F", "EPOCH": "2025-12-22T22:59:25.613376", "MEAN_MOTION": 15.40526473, "ECCENTRICITY": 0.00012171, "INCLINATION": 97.2193, "RA_OF_ASC_NODE": 55.9263, "ARG_OF_PERICENTER": 52.3415, "MEAN_ANOMALY": 307.7942, "EPHEMERIS_TYPE": 0, "CLASSIFICATION_TYPE": "U", "NORAD_CAT_ID": 46277, "ELEMENT_SET_NO": 999, "REV_AT_EPOCH": 29481, "BSTAR": 0.00027843673, "MEAN_MOTION_DOT": 0.00011224, "MEAN_MOTION_DDOT": 0}, "tle": {"line1": "1 46277U 20061F   25356.95793534  .00011224  00000+0  27844-3 0  9998", "line2": "2 46277  97.2193  55.9263 0001217  52.3415 307.7942 15.40526473294813"}}, "geometry": {"type": "Point", "coordinates": [63.03994206394743, -43.317833371598354]}}, {"type": "Feature", "properties": {"norad_id": 46984, "name": "SENTINEL-6A", "group": "resource", "lat": 39.57622273543635, "lon": -61.002105921054046, "alt_km": 1337.8108250990017, "timestamp": "2025-12-23T05:02:11.681367+00:00", "meta": {"OBJECT_NAME": "SENTINEL-6A", "OBJECT_ID": "2020-086A", "EPOCH": "2025-12-22T17:05:12.936192", "MEAN_MOTION": 12.80930802, "ECCENTRICITY": 0.00077221, "INCLINATION": 66.0396, "RA_OF_ASC_NODE": 141.5954, "ARG_OF_PERICENTER": 269.3659, "MEAN_ANOMALY": 90.6472, "EPHEMERIS_TYPE": 0, "CLASSIFICATION_TYPE": "U", "NORAD_CAT_ID": 46984, "ELEMENT_SET_NO": 999, "REV_AT_EPOCH": 23772, "BSTAR": -3.956609e-05, "MEAN_MOTION_DOT": -7e-07, "MEAN_MOTION_DDOT": 0}, "tle": {"line1": "1 46984U 20086A   25356.71195528 -.00000070  00000+0 -39566-4 0  9997", "line2": "2 46984  66.0396 141.5954 0007722 269.3659  90.6472 12.80930802237722"}}, "geometry": {"type": "Point", "coordinates": [-61.002105921054046, 39.57622273543635]}}, {"type": "Feature", "properties": {"norad_id": 48079, "name": "GAOFEN-12 02", "group": "resource", "lat": -30.06190452801414, "lon": -4.173615345146447, "alt_km": 633.9970160938692, "timestamp": "2025-12-23T05:02:11.681378+00:00", "meta": {"OBJECT_NAME": "GAOFEN-12 02", "OBJECT_ID": "2021-026A", "EPOCH": "2025-12-22T22:41:10.020768", "MEAN_MOTION": 14.80686884, "ECCENTRICITY": 0.00035809, "INCLINATION": 97.9856, "RA_OF_ASC_NODE": 350.9026, "ARG_OF_PERICENTER": 80.6512, "MEAN_ANOMALY": 279.5105, "EPHEMERIS_TYPE": 0, "CLASSIFICATION_TYPE": "U", "NORAD_CAT_ID": 48079, "ELEMENT_SET_NO": 999, "REV_AT_EPOCH": 25568, "BSTAR": 7.212022e-05, "MEAN_MOTION_DOT": 5.02e-06, "MEAN_MOTION_DDOT": 0}, "tle": {"line1": "1 48079U 21026A   25356.94525487  .00000502  00000+0  72120-4 0  9996", "line2": "2 48079  97.9856 350.9026 0003580  80.6512 279.5105 14.80686884255685"}}, "geometry": {"type": "Point", "coordinates": [-4.173615345146447, -30.06190452801414]}}, {"type": "Feature", "properties": {"norad_id": 48268, "name": "PLEIADES NEO 3", "group": "resource", "lat": 72.15363348538871, "lon": 43.97039712253234, "alt_km": 616.1507648639681, "timestamp": "2025-12-23T05:02:11.681387+00:00", "meta": {"OBJECT_NAME": "PLEIADES NEO 3", "OBJECT_ID": "2021-034A", "EPOCH": "2025-12-22T23:50:30.452928", "MEAN_MOTION": 14.81674396, "ECCENTRICITY": 0.00014028, "INCLINATION": 97.8947, "RA_OF_ASC_NODE": 69.2875, "ARG_OF_PERICENTER": 89.2826, "MEAN_ANOMALY": 270.8548, "EPHEMERIS_TYPE": 0, "CLASSIFICATION_TYPE": "U", "NORAD_CAT_ID": 48268, "ELEMENT_SET_NO": 999, "REV_AT_EPOCH": 25156, "BSTAR": 1.6070835e-05, "MEAN_MOTION_DOT": 7.4e-07, "MEAN_MOTION_DDOT": 0}, "tle": {"line1": "1 48268U 21034A   25356.99340802  .00000074  00000+0  16071-4 0  9993", "line2": "2 48268  97.8947  69.2875 0001402  89.2826 270.8548 14.81674396251565"}}, "geometry": {"type": "Point", "coordinates": [43.97039712253234, 72.15363348538871]}}, {"type": "Feature", "properties": {"norad_id": 49070, "name": "PLEIADES NEO 4", "group": "resource", "lat": -72.2528928365624, "lon": -136.1983640900207, "alt_km": 632.2733382256665, "timestamp": "2025-12-23T05:02:11.681397+00:00", "meta": {"OBJECT_NAME": "PLEIADES NEO 4", "OBJECT_ID": "2021-073E", "EPOCH": "2025-12-20T17:32:43.596096", "MEAN_MOTION": 14.81672155, "ECCENTRICITY": 0.00013181, "INCLINATION": 97.8951, "RA_OF_ASC_NODE": 67.0539, "ARG_OF_PERICENTER": 90.4145, "MEAN_ANOMALY": 269.7219, "EPHEMERIS_TYPE": 0, "CLASSIFICATION_TYPE": "U", "NORAD_CAT_ID": 49070, "ELEMENT_SET_NO": 999, "REV_AT_EPOCH": 23494, "BSTAR": -3.817265e-05, "MEAN_MOTION_DOT": -3.52e-06, "MEAN_MOTION_DDOT": 0}, "tle": {"line1": "1 49070U 21073E   25354.73106014 -.00000352  00000+0 -38173-4 0  9991", "line2": "2 49070  97.8951  67.0539 0001318  90.4145 269.7219 14.81672155234945"}}, "geometry": {"type": "Point", "coordinates": [-136.1983640900207, -72.2528928365624]}}, {"type": "Feature", "properties": {"norad_id": 49260, "name": "LANDSAT 9", "group": "resource", "lat": 64.85773485972756, "lon": 47.25704012438331, "alt_km": 695.4822793094254, "timestamp": "2025-12-23T05:02:11.681407+00:00", "meta": {"OBJECT_NAME": "LANDSAT 9", "OBJECT_ID": "2021-088A", "EPOCH": "2025-12-22T17:11:51.339552", "MEAN_MOTION": 14.57107727, "ECCENTRICITY": 0.00011029, "INCLINATION": 98.2081, "RA_OF_ASC_NODE": 64.6824, "ARG_OF_PERICENTER": 92.5416, "MEAN_ANOMALY": 267.5909, "EPHEMERIS_TYPE": 0, "CLASSIFICATION_TYPE": "U", "NORAD_CAT_ID": 49260, "ELEMENT_SET_NO": 999, "REV_AT_EPOCH": 22530, "BSTAR": 9.8395369e-05, "MEAN_MOTION_DOT": 3.98e-06, "MEAN_MOTION_DDOT": 0}, "tle": {"line1": "1 49260U 21088A   25356.71656643  .00000398  00000+0  98395-4 0  9996", "line2": "2 49260  98.2081  64.6824 0001102  92.5416 267.5909 14.57107727225303"}}, "geometry": {"type": "Point", "coordinates": [47.25704012438331, 64.85773485972756]}}, {"type": "Feature", "properties": {"norad_id": 51444, "name": "CSG-2", "group": "resource", "lat": -54.56764110677606, "lon": -170.40065673120827, "alt_km": 630.3366208095649, "timestamp": "2025-12-23T05:02:11.681418+00:00", "meta": {"OBJECT_NAME": "CSG-2", "OBJECT_ID": "2022-008A", "EPOCH": "2025-12-22T22:48:17.606592", "MEAN_MOTION": 14.82156187, "ECCENTRICITY": 0.00015227, "INCLINATION": 97.88, "RA_OF_ASC_NODE": 178.1192, "ARG_OF_PERICENTER": 82.1379, "MEAN_ANOMALY": 278.0007, "EPHEMERIS_TYPE": 0, "CLASSIFICATION_TYPE": "U", "NORAD_CAT_ID": 51444, "ELEMENT_SET_NO": 999, "REV_AT_EPOCH": 21048, "BSTAR": 0.00014737553, "MEAN_MOTION_DOT": 1.121e-05, "MEAN_MOTION_DDOT": 0}, "tle": {"line1": "1 51444U 22008A   25356.95020378  .00001121  00000+0  14738-3 0  9995", "line2": "2 51444  97.8800 178.1192 0001522  82.1379 278.0007 14.82156187210483"}}, "geometry": {"type": "Point", "coordinates": [-170.40065673120827, -54.56764110677606]}}]}